{"epoch":1784762836,"count":18316,"objects":[{"id":"44299","name":"COSMOS 2534 (GLONASS)","type":"PAYLOAD","l1":"1 44299U 19030A   26203.13389427  .00000093  00000-0  00000-0 0  9993","l2":"2 44299  64.3713 191.4397 0013438 275.2090  33.8854  2.13102306 55663"},{"id":"44337","name":"BEIDOU 3 IGSO-2","type":"PAYLOAD","l1":"1 44337U 19035A   26202.76760661 -.00000106  00000-0  00000-0 0  9998","l2":"2 44337  55.2573 158.5594 0039051 212.8700 322.7485  1.00289985 26017"},{"id":"44506","name":"NAVSTAR 78 (USA 293)","type":"PAYLOAD","l1":"1 44506U 19056A   26203.04754491 -.00000112  00000-0  00000-0 0  9992","l2":"2 44506  55.6182 329.7570 0063714 198.2713 160.7880  2.00570474 50760"},{"id":"44542","name":"BEIDOU 3M23","type":"PAYLOAD","l1":"1 44542U 19061A   26202.07053170  .00000079  00000-0  00000-0 0  9997","l2":"2 44542  54.3973 181.5850 0008711   0.1669 359.8142  1.86229270 46424"},{"id":"44543","name":"BEIDOU 3M24","type":"PAYLOAD","l1":"1 44543U 19061B   26202.36894043  .00000079  00000-0  00000-0 0  9992","l2":"2 44543  54.3962 181.5433 0006008 341.8135 129.6135  1.86227442 46435"},{"id":"44624","name":"EUTE 5W B","type":"PAYLOAD","l1":"1 44624U 19067A   26203.32820803 -.00000039  00000-0  00000-0 0  9995","l2":"2 44624   0.0733 326.0758 0003259 153.3120 293.8288  1.00271991 24781"},{"id":"44793","name":"BEIDOU 3M21","type":"PAYLOAD","l1":"1 44793U 19078A   26201.91091067 -.00000098  00000-0  00000-0 0  9994","l2":"2 44793  53.9028 298.6402 0005603  50.2813 309.8054  1.86227204 45279"},{"id":"44794","name":"BEIDOU 3M22","type":"PAYLOAD","l1":"1 44794U 19078B   26200.97683179 -.00000096  00000-0  00000-0 0  9999","l2":"2 44794  53.8770 298.6333 0003525  49.7600 310.3090  1.86227606 45266"},{"id":"44850","name":"COSMOS 2544 (GLONASS)","type":"PAYLOAD","l1":"1 44850U 19088A   26199.93909424 -.00000038  00000-0  00000-0 0  9996","l2":"2 44850  65.5828  72.6716 0012050 253.1294 106.8089  2.13102904 51392"},{"id":"44864","name":"BEIDOU 3M19","type":"PAYLOAD","l1":"1 44864U 19090A   26203.09769958 -.00000079  00000-0  00000-0 0  9998","l2":"2 44864  56.5900  61.6363 0016555 296.8524 242.7354  1.86231513 44887"},{"id":"44865","name":"BEIDOU 3M20","type":"PAYLOAD","l1":"1 44865U 19090B   26202.96464863 -.00000079  00000-0  00000-0 0  9991","l2":"2 44865  56.5915  61.6754 0014231 312.1692 227.7948  1.86231478 44865"},{"id":"45344","name":"BEIDOU 3 G2","type":"PAYLOAD","l1":"1 45344U 20017A   26203.63015752 -.00000139  00000-0  00000-0 0  9996","l2":"2 45344   2.9347  47.8452 0002085  57.4791 141.9368  1.00272691 23617"},{"id":"45358","name":"COSMOS 2545 (GLONASS)","type":"PAYLOAD","l1":"1 45358U 20018A   26201.07254601 -.00000083  00000-0  00000-0 0  9994","l2":"2 45358  64.3333 311.2627 0009901 230.0825 129.8537  2.13102411 49362"},{"id":"45807","name":"BEIDOU 3 G3","type":"PAYLOAD","l1":"1 45807U 20040A   26203.63622421 -.00000352  00000-0  00000-0 0  9990","l2":"2 45807   2.5325  67.5045 0002294 316.0842 256.3813  1.00273366 22427"},{"id":"45854","name":"NAVSTAR 79 (USA 304)","type":"PAYLOAD","l1":"1 45854U 20041A   26202.89239091 -.00000083  00000-0  00000-0 0  9998","l2":"2 45854  56.6933  27.5976 0065557 204.6716 339.2051  2.00558017 44739"},{"id":"46114","name":"GALAXY 30","type":"PAYLOAD","l1":"1 46114U 20056C   26203.50461384  .00000041  00000-0  00000-0 0  9998","l2":"2 46114   0.0150  70.1395 0002230  47.1977 239.5623  1.00271306 21644"},{"id":"46805","name":"COSMOS 2547 (GLONASS)","type":"PAYLOAD","l1":"1 46805U 20075A   26201.26230815  .00000083  00000-0  00000-0 0  9996","l2":"2 46805  64.6016 191.3717 0009466 239.9348 119.9732  2.13099966 44612"},{"id":"46826","name":"NAVSTAR 80 (USA 309)","type":"PAYLOAD","l1":"1 46826U 20078A   26203.40249986  .00000084  00000-0  00000-0 0  9990","l2":"2 46826  53.9765 209.3500 0074708 207.9626 321.8106  2.00565122 42213"},{"id":"48859","name":"NAVSTAR 81 (USA 319)","type":"PAYLOAD","l1":"1 48859U 21054A   26203.41991022 -.00000113  00000-0  00000-0 0  9993","l2":"2 48859  55.1554 331.0432 0026666 228.6022 140.0987  2.00567016 37461"},{"id":"49336","name":"QZS-1R","type":"PAYLOAD","l1":"1 49336U 21096A   26200.56101544 -.00000322  00000-0  00000-0 0  9997","l2":"2 49336  37.5263  79.1015 0755512 272.3091 279.1178  1.00244085 17338"},{"id":"49809","name":"GALILEO 27 (223)","type":"PAYLOAD","l1":"1 49809U 21116A   26203.48190089 -.00000107  00000-0  00000-0 0  9992","l2":"2 49809  57.1475 340.7222 0002506 195.3315 345.6811  1.70476501 28785"},{"id":"49810","name":"GALILEO 28 (224)","type":"PAYLOAD","l1":"1 49810U 21116B   26200.95392787 -.00000107  00000-0  00000-0 0  9992","l2":"2 49810  57.1487 340.7887 0001904 182.1498   0.0180  1.70476408 28769"},{"id":"52984","name":"COSMOS 2557 (GLONASS)","type":"PAYLOAD","l1":"1 52984U 22075A   26201.89567594 -.00000088  00000-0  00000-0 0  9995","l2":"2 52984  64.2766 313.2973 0010828 270.8513  89.0451  2.13102143 31439"},{"id":"54031","name":"COSMOS 2559 (GLONASS)","type":"PAYLOAD","l1":"1 54031U 22130A   26202.18464193 -.00000089  00000-0  00000-0 0  9997","l2":"2 54031  64.2489 313.3698 0013171 181.7048 178.3110  2.13101788 29411"},{"id":"54377","name":"COSMOS 2564 (GLONASS)","type":"PAYLOAD","l1":"1 54377U 22161A   26202.96626008  .00000094  00000-0  00000-0 0  9990","l2":"2 54377  64.7442 191.5572 0012170 224.6979 135.2103  2.13102079 28375"},{"id":"55268","name":"NAVSTAR 82 (USA 343)","type":"PAYLOAD","l1":"1 55268U 23009A   26201.60569105  .00000029  00000-0  00000-0 0  9994","l2":"2 55268  55.1257 147.2053 0005287 339.0004 198.4380  2.00569363 25910"},{"id":"56564","name":"BEIDOU 3 G4","type":"PAYLOAD","l1":"1 56564U 23066A   26203.64203090 -.00000277  00000-0  00000-0 0  9997","l2":"2 56564   0.4549 341.0270 0005140 182.7160 147.8320  1.00270640 11740"},{"id":"56759","name":"NVS-01","type":"PAYLOAD","l1":"1 56759U 23076A   26203.56864356 -.00000330  00000-0  00000-0 0  9993","l2":"2 56759   2.0847 242.7285 0002927  17.5924  14.2085  1.00275596 11471"},{"id":"57517","name":"COSMOS 2569 (GLONASS)","type":"PAYLOAD","l1":"1 57517U 23114A   26202.50927394 -.00000053  00000-0  00000-0 0  9996","l2":"2 57517  65.3220  71.4633 0009466 295.3236  64.6448  2.13103851 22992"},{"id":"58654","name":"BEIDOU 3 M28","type":"PAYLOAD","l1":"1 58654U 23207A   26202.66461816 -.00000081  00000-0  00000-0 0  9992","l2":"2 58654  55.7837  61.1401 0002214   9.0129 351.0521  1.86229818 17480"},{"id":"58655","name":"BEIDOU 3 M26","type":"PAYLOAD","l1":"1 58655U 23207B   26202.46211556 -.00000082  00000-0  00000-0 0  9996","l2":"2 58655  55.7861  61.1336 0001673 324.0688  35.9810  1.86229782 17460"}]}